[{"OBJECT_NAME":"STARLINK-37159","OBJECT_ID":"2026-055Y","EPOCH":"2026-04-04T06:00:02.000160","MEAN_MOTION":15.80910241,"ECCENTRICITY":0.00011618,"INCLINATION":53.1588,"RA_OF_ASC_NODE":209.0034,"ARG_OF_PERICENTER":73.0976,"MEAN_ANOMALY":41.4059,"EPHEMERIS_TYPE":0,"CLASSIFICATION_TYPE":"U","NORAD_CAT_ID":68284,"ELEMENT_SET_NO":999,"REV_AT_EPOCH":374,"BSTAR":-0.00053390312,"MEAN_MOTION_DOT":-0.00104984,"MEAN_MOTION_DDOT":0},{"OBJECT_NAME":"STARLINK-36725","OBJECT_ID":"2026-055Z","EPOCH":"2026-04-04T06:00:02.000160","MEAN_MOTION":15.80890519,"ECCENTRICITY":0.00010463,"INCLINATION":53.159,"RA_OF_ASC_NODE":208.9933,"ARG_OF_PERICENTER":90.8117,"MEAN_ANOMALY":27.9699,"EPHEMERIS_TYPE":0,"CLASSIFICATION_TYPE":"U","NORAD_CAT_ID":68285,"ELEMENT_SET_NO":999,"REV_AT_EPOCH":374,"BSTAR":-0.00033067198,"MEAN_MOTION_DOT":-0.00065522,"MEAN_MOTION_DDOT":0},{"OBJECT_NAME":"STARLINK-36998","OBJECT_ID":"2026-055AA","EPOCH":"2026-04-04T06:00:02.000160","MEAN_MOTION":15.80910699,"ECCENTRICITY":0.00013824,"INCLINATION":53.1589,"RA_OF_ASC_NODE":208.978,"ARG_OF_PERICENTER":83.4186,"MEAN_ANOMALY":43.9017,"EPHEMERIS_TYPE":0,"CLASSIFICATION_TYPE":"U","NORAD_CAT_ID":68286,"ELEMENT_SET_NO":999,"REV_AT_EPOCH":374,"BSTAR":-0.0005153761,"MEAN_MOTION_DOT":-0.00101412,"MEAN_MOTION_DDOT":0},{"OBJECT_NAME":"STARLINK-37165","OBJECT_ID":"2026-055AB","EPOCH":"2026-04-04T06:00:02.000160","MEAN_MOTION":15.80913718,"ECCENTRICITY":0.00010676,"INCLINATION":53.1589,"RA_OF_ASC_NODE":208.9672,"ARG_OF_PERICENTER":106.6583,"MEAN_ANOMALY":24.9247,"EPHEMERIS_TYPE":0,"CLASSIFICATION_TYPE":"U","NORAD_CAT_ID":68287,"ELEMENT_SET_NO":999,"REV_AT_EPOCH":374,"BSTAR":-0.00047989295,"MEAN_MOTION_DOT":-0.00094561,"MEAN_MOTION_DDOT":0},{"OBJECT_NAME":"STARLINK-37016","OBJECT_ID":"2026-055AC","EPOCH":"2026-04-04T06:00:02.000160","MEAN_MOTION":15.80904202,"ECCENTRICITY":0.00012537,"INCLINATION":53.1587,"RA_OF_ASC_NODE":208.9853,"ARG_OF_PERICENTER":78.3795,"MEAN_ANOMALY":44.6598,"EPHEMERIS_TYPE":0,"CLASSIFICATION_TYPE":"U","NORAD_CAT_ID":68288,"ELEMENT_SET_NO":999,"REV_AT_EPOCH":374,"BSTAR":-0.00018394017,"MEAN_MOTION_DOT":-0.00036901,"MEAN_MOTION_DDOT":0},{"OBJECT_NAME":"STARLINK-37010","OBJECT_ID":"2026-055AD","EPOCH":"2026-04-04T06:00:02.000160","MEAN_MOTION":15.80920011,"ECCENTRICITY":0.00011496,"INCLINATION":53.1589,"RA_OF_ASC_NODE":208.9585,"ARG_OF_PERICENTER":100.6863,"MEAN_ANOMALY":35.1608,"EPHEMERIS_TYPE":0,"CLASSIFICATION_TYPE":"U","NORAD_CAT_ID":68289,"ELEMENT_SET_NO":999,"REV_AT_EPOCH":374,"BSTAR":-0.00052647568,"MEAN_MOTION_DOT":-0.00103596,"MEAN_MOTION_DDOT":0},{"OBJECT_NAME":"STARLINK-37151","OBJECT_ID":"2026-055AE","EPOCH":"2026-04-04T06:00:02.000160","MEAN_MOTION":15.80899412,"ECCENTRICITY":0.00012455,"INCLINATION":53.1589,"RA_OF_ASC_NODE":208.9494,"ARG_OF_PERICENTER":68.802,"MEAN_ANOMALY":71.3266,"EPHEMERIS_TYPE":0,"CLASSIFICATION_TYPE":"U","NORAD_CAT_ID":68290,"ELEMENT_SET_NO":999,"REV_AT_EPOCH":374,"BSTAR":-0.00015481549,"MEAN_MOTION_DOT":-0.00031182,"MEAN_MOTION_DDOT":0},{"OBJECT_NAME":"STRIX-6","OBJECT_ID":"2026-056A","EPOCH":"2026-04-03T02:38:35.957760","MEAN_MOTION":14.99677076,"ECCENTRICITY":0.001654,"INCLINATION":50.2841,"RA_OF_ASC_NODE":344.5578,"ARG_OF_PERICENTER":316.2429,"MEAN_ANOMALY":43.7208,"EPHEMERIS_TYPE":0,"CLASSIFICATION_TYPE":"U","NORAD_CAT_ID":68291,"ELEMENT_SET_NO":999,"REV_AT_EPOCH":200,"BSTAR":0.000684,"MEAN_MOTION_DOT":8.302e-5,"MEAN_MOTION_DDOT":0},{"OBJECT_NAME":"ELECTRON KICK STAGE R/B","OBJECT_ID":"2026-056C","EPOCH":"2026-04-04T01:32:06.808416","MEAN_MOTION":15.41018789,"ECCENTRICITY":0.01530422,"INCLINATION":50.2922,"RA_OF_ASC_NODE":335.7857,"ARG_OF_PERICENTER":69.0732,"MEAN_ANOMALY":292.6538,"EPHEMERIS_TYPE":0,"CLASSIFICATION_TYPE":"U","NORAD_CAT_ID":68293,"ELEMENT_SET_NO":999,"REV_AT_EPOCH":221,"BSTAR":0.0020168967,"MEAN_MOTION_DOT":0.00131194,"MEAN_MOTION_DDOT":0},{"OBJECT_NAME":"STARLINK-37107","OBJECT_ID":"2026-057A","EPOCH":"2026-04-04T06:00:02.000160","MEAN_MOTION":15.85158115,"ECCENTRICITY":0.00013242,"INCLINATION":97.2817,"RA_OF_ASC_NODE":217.8663,"ARG_OF_PERICENTER":62.3985,"MEAN_ANOMALY":227.4512,"EPHEMERIS_TYPE":0,"CLASSIFICATION_TYPE":"U","NORAD_CAT_ID":68294,"ELEMENT_SET_NO":999,"REV_AT_EPOCH":327,"BSTAR":-0.006047411,"MEAN_MOTION_DOT":-0.01258122,"MEAN_MOTION_DDOT":0},{"OBJECT_NAME":"STARLINK-37147","OBJECT_ID":"2026-057B","EPOCH":"2026-04-04T06:00:02.000160","MEAN_MOTION":15.85213181,"ECCENTRICITY":0.00012672,"INCLINATION":97.2812,"RA_OF_ASC_NODE":217.8674,"ARG_OF_PERICENTER":66.2229,"MEAN_ANOMALY":227.6716,"EPHEMERIS_TYPE":0,"CLASSIFICATION_TYPE":"U","NORAD_CAT_ID":68295,"ELEMENT_SET_NO":999,"REV_AT_EPOCH":326,"BSTAR":-0.0060775234,"MEAN_MOTION_DOT":-0.01266622,"MEAN_MOTION_DDOT":0},{"OBJECT_NAME":"STARLINK-37142","OBJECT_ID":"2026-057C","EPOCH":"2026-04-04T06:00:02.000160","MEAN_MOTION":15.8528574,"ECCENTRICITY":0.00012851,"INCLINATION":97.2804,"RA_OF_ASC_NODE":217.8725,"ARG_OF_PERICENTER":59.7656,"MEAN_ANOMALY":246.8427,"EPHEMERIS_TYPE":0,"CLASSIFICATION_TYPE":"U","NORAD_CAT_ID":68296,"ELEMENT_SET_NO":999,"REV_AT_EPOCH":315,"BSTAR":-0.0061639129,"MEAN_MOTION_DOT":-0.0128654,"MEAN_MOTION_DDOT":0},{"OBJECT_NAME":"STARLINK-37115","OBJECT_ID":"2026-057D","EPOCH":"2026-04-04T06:00:02.000160","MEAN_MOTION":15.8523522,"ECCENTRICITY":0.00012187,"INCLINATION":97.2802,"RA_OF_ASC_NODE":217.8696,"ARG_OF_PERICENTER":66.4118,"MEAN_ANOMALY":236.0914,"EPHEMERIS_TYPE":0,"CLASSIFICATION_TYPE":"U","NORAD_CAT_ID":68297,"ELEMENT_SET_NO":999,"REV_AT_EPOCH":315,"BSTAR":-0.0061614142,"MEAN_MOTION_DOT":-0.01283262,"MEAN_MOTION_DDOT":0},{"OBJECT_NAME":"STARLINK-36355","OBJECT_ID":"2026-057E","EPOCH":"2026-04-04T06:00:02.000160","MEAN_MOTION":15.85254041,"ECCENTRICITY":0.00013422,"INCLINATION":97.2808,"RA_OF_ASC_NODE":217.8686,"ARG_OF_PERICENTER":68.6174,"MEAN_ANOMALY":229.4133,"EPHEMERIS_TYPE":0,"CLASSIFICATION_TYPE":"U","NORAD_CAT_ID":68298,"ELEMENT_SET_NO":999,"REV_AT_EPOCH":342,"BSTAR":-0.0061229082,"MEAN_MOTION_DOT":-0.01277272,"MEAN_MOTION_DDOT":0},{"OBJECT_NAME":"STARLINK-37118","OBJECT_ID":"2026-057F","EPOCH":"2026-04-04T06:00:02.000160","MEAN_MOTION":15.85306157,"ECCENTRICITY":0.00014389,"INCLINATION":97.2795,"RA_OF_ASC_NODE":217.8753,"ARG_OF_PERICENTER":59.7806,"MEAN_ANOMALY":255.4882,"EPHEMERIS_TYPE":0,"CLASSIFICATION_TYPE":"U","NORAD_CAT_ID":68299,"ELEMENT_SET_NO":999,"REV_AT_EPOCH":326,"BSTAR":-0.0062400389,"MEAN_MOTION_DOT":-0.01301797,"MEAN_MOTION_DDOT":0},{"OBJECT_NAME":"STARLINK-36875","OBJECT_ID":"2026-057G","EPOCH":"2026-04-04T06:00:02.000160","MEAN_MOTION":15.85256358,"ECCENTRICITY":0.00014675,"INCLINATION":97.28,"RA_OF_ASC_NODE":217.8737,"ARG_OF_PERICENTER":56.8449,"MEAN_ANOMALY":254.316,"EPHEMERIS_TYPE":0,"CLASSIFICATION_TYPE":"U","NORAD_CAT_ID":68300,"ELEMENT_SET_NO":999,"REV_AT_EPOCH":332,"BSTAR":-0.0062137683,"MEAN_MOTION_DOT":-0.01294222,"MEAN_MOTION_DDOT":0},{"OBJECT_NAME":"STARLINK-37099","OBJECT_ID":"2026-057H","EPOCH":"2026-04-04T06:00:02.000160","MEAN_MOTION":15.85265711,"ECCENTRICITY":0.0001476,"INCLINATION":97.279,"RA_OF_ASC_NODE":217.8776,"ARG_OF_PERICENTER":59.3473,"MEAN_ANOMALY":260.5791,"EPHEMERIS_TYPE":0,"CLASSIFICATION_TYPE":"U","NORAD_CAT_ID":68301,"ELEMENT_SET_NO":999,"REV_AT_EPOCH":315,"BSTAR":-0.0062783818,"MEAN_MOTION_DOT":-0.01306616,"MEAN_MOTION_DDOT":0},{"OBJECT_NAME":"STARLINK-37007","OBJECT_ID":"2026-057J","EPOCH":"2026-04-04T06:00:02.000160","MEAN_MOTION":15.8522048,"ECCENTRICITY":0.00012891,"INCLINATION":97.2781,"RA_OF_ASC_NODE":217.8808,"ARG_OF_PERICENTER":63.06,"MEAN_ANOMALY":266.1429,"EPHEMERIS_TYPE":0,"CLASSIFICATION_TYPE":"U","NORAD_CAT_ID":68302,"ELEMENT_SET_NO":999,"REV_AT_EPOCH":337,"BSTAR":-0.0065761505,"MEAN_MOTION_DOT":-0.01358177,"MEAN_MOTION_DDOT":0},{"OBJECT_NAME":"STARLINK-36300","OBJECT_ID":"2026-057K","EPOCH":"2026-04-04T06:00:02.000160","MEAN_MOTION":15.85217896,"ECCENTRICITY":0.0001295,"INCLINATION":97.2785,"RA_OF_ASC_NODE":217.8789,"ARG_OF_PERICENTER":65.39,"MEAN_ANOMALY":259.311,"EPHEMERIS_TYPE":0,"CLASSIFICATION_TYPE":"U","NORAD_CAT_ID":68303,"ELEMENT_SET_NO":999,"REV_AT_EPOCH":342,"BSTAR":-0.0063706289,"MEAN_MOTION_DOT":-0.01320696,"MEAN_MOTION_DDOT":0},{"OBJECT_NAME":"STARLINK-36849","OBJECT_ID":"2026-057L","EPOCH":"2026-04-04T06:00:02.000160","MEAN_MOTION":15.85283065,"ECCENTRICITY":0.00014017,"INCLINATION":97.2781,"RA_OF_ASC_NODE":217.8829,"ARG_OF_PERICENTER":53.5966,"MEAN_ANOMALY":279.7398,"EPHEMERIS_TYPE":0,"CLASSIFICATION_TYPE":"U","NORAD_CAT_ID":68304,"ELEMENT_SET_NO":999,"REV_AT_EPOCH":332,"BSTAR":-0.0067616377,"MEAN_MOTION_DOT":-0.01395367,"MEAN_MOTION_DDOT":0},{"OBJECT_NAME":"STARLINK-36277","OBJECT_ID":"2026-057M","EPOCH":"2026-04-04T06:00:02.000160","MEAN_MOTION":15.85308158,"ECCENTRICITY":0.00013515,"INCLINATION":97.2769,"RA_OF_ASC_NODE":217.8856,"ARG_OF_PERICENTER":56.8267,"MEAN_ANOMALY":285.2641,"EPHEMERIS_TYPE":0,"CLASSIFICATION_TYPE":"U","NORAD_CAT_ID":68305,"ELEMENT_SET_NO":999,"REV_AT_EPOCH":348,"BSTAR":-0.0071492403,"MEAN_MOTION_DOT":-0.01496132,"MEAN_MOTION_DDOT":0},{"OBJECT_NAME":"STARLINK-36307","OBJECT_ID":"2026-057N","EPOCH":"2026-04-04T06:00:02.000160","MEAN_MOTION":15.85342092,"ECCENTRICITY":0.00013379,"INCLINATION":97.2778,"RA_OF_ASC_NODE":217.8846,"ARG_OF_PERICENTER":57.8856,"MEAN_ANOMALY":279.5671,"EPHEMERIS_TYPE":0,"CLASSIFICATION_TYPE":"U","NORAD_CAT_ID":68306,"ELEMENT_SET_NO":999,"REV_AT_EPOCH":342,"BSTAR":-0.0068966215,"MEAN_MOTION_DOT":-0.01423062,"MEAN_MOTION_DDOT":0},{"OBJECT_NAME":"STARLINK-36264","OBJECT_ID":"2026-057P","EPOCH":"2026-04-04T06:00:02.000160","MEAN_MOTION":15.85220122,"ECCENTRICITY":0.00012167,"INCLINATION":97.277,"RA_OF_ASC_NODE":217.8882,"ARG_OF_PERICENTER":54.371,"MEAN_ANOMALY":292.4901,"EPHEMERIS_TYPE":0,"CLASSIFICATION_TYPE":"U","NORAD_CAT_ID":68307,"ELEMENT_SET_NO":999,"REV_AT_EPOCH":348,"BSTAR":-0.0072305334,"MEAN_MOTION_DOT":-0.01505393,"MEAN_MOTION_DDOT":0}]
